OBJECT_NAME,OBJECT_ID,EPOCH,MEAN_MOTION,ECCENTRICITY,INCLINATION,RA_OF_ASC_NODE,ARG_OF_PERICENTER,MEAN_ANOMALY,EPHEMERIS_TYPE,CLASSIFICATION_TYPE,NORAD_CAT_ID,ELEMENT_SET_NO,REV_AT_EPOCH,BSTAR,MEAN_MOTION_DOT,MEAN_MOTION_DDOT
QPS-SAR-8 (AMATERU-IV),2024-149CC,2026-07-01T16:41:33.284832,15.04282398,.00042133,97.6669,261.7234,75.4133,284.7560,0,U,60542,999,10245,.50818982E-3,.7017E-4,0
ARCTIC WEATHER SATELLITE,2024-149CD,2026-07-01T22:19:07.093344,14.89807813,.00035647,97.6797,252.9738,76.1312,284.0302,0,U,60543,999,10149,.11991544E-3,.1097E-4,0
CAPELLA-15 (ACADIA-5),2024-149CE,2026-07-01T22:32:01.987296,14.92404833,.00038165,97.6768,255.4737,32.7851,327.3605,0,U,60544,999,10205,.49230581E-3,.4988E-4,0
HAWK-10B,2024-149CF,2026-07-01T22:42:23.789952,14.96555945,.00062222,97.6810,257.9440,55.1004,305.0802,0,U,60545,999,10219,.17276536E-3,.1909E-4,0
ICEYE-X39,2024-149CG,2026-07-01T16:28:51.321504,14.99986059,.00066615,97.6768,259.5132,81.8561,278.3418,0,U,60546,999,10229,.3335432E-3,.4089E-4,0
UMBRA-10,2024-149CH,2026-07-01T15:10:50.974752,15.18479307,.00007217,97.6985,270.1176,172.6903,187.4341,0,U,60547,999,10292,.96975333E-3,.19959E-3,0
ICEYE-X33,2024-149CJ,2026-07-01T04:04:04.249632,15.00863132,.00017982,97.7330,261.2397,73.8785,286.2637,0,U,60548,999,10230,.39826823E-3,.5006E-4,0
ICEYE-X40,2024-149CK,2026-07-01T15:56:37.962528,14.97984628,.00051803,97.6801,258.9280,38.6412,321.5180,0,U,60549,999,10224,.14646696E-3,.1671E-4,0
SATELIOT_1,2024-149CL,2026-07-01T22:06:46.427616,14.98125436,.00072736,97.6745,258.5757,33.6106,326.5577,0,U,60550,999,10227,.14955056E-3,.1714E-4,0
BRO-14,2024-149CM,2026-07-01T04:08:50.115264,14.96213455,.0008045,97.6875,257.6994,58.9773,301.2237,0,U,60551,999,10208,.134E-3,.1454E-4,0
SATELIOT_3,2024-149CN,2026-07-01T15:07:25.575168,14.98117599,.0006188,97.6826,259.0918,53.2402,306.9388,0,U,60552,999,10224,.27462482E-3,.3195E-4,0
BRO-15,2024-149CP,2026-07-01T14:57:55.072512,14.96204419,.00090056,97.6799,257.7299,49.4683,310.7322,0,U,60553,999,10216,.32988399E-3,.3665E-4,0
UM5-RIBAT,2024-149CQ,2026-07-01T22:29:26.520864,15.01158457,.00022832,97.6622,260.5382,36.9771,323.1611,0,U,60554,999,10240,.28638827E-3,.3612E-4,0
UM5-EOSAT,2024-149CR,2026-07-01T02:22:54.077664,15.01640699,.00091492,97.6756,260.6751,74.1730,286.0503,0,U,60555,999,10230,.37480896E-3,.481E-4,0
LASARSAT,2024-247Q,2026-07-01T10:37:24.818304,15.47204595,.00066341,44.9721,182.0574,62.8619,297.2947,0,U,62391,999,8552,.73494225E-3,.38073E-3,0
CROCUBE,2024-247T,2026-07-01T07:02:47.314752,15.49208624,.0006553,44.9690,179.9931,67.6168,292.5416,0,U,62394,999,8553,.91475E-3,.5103E-3,0
TEVEL2-4,2025-052D,2026-07-01T15:43:57.397152,15.35122895,.00046533,97.3888,79.0745,76.7769,283.3993,0,U,63213,999,7233,.67405526E-3,.22944E-3,0
TEVEL2-5,2025-052E,2026-06-30T05:50:33.814752,15.34882414,.00047019,97.3890,77.6036,80.7172,279.4603,0,U,63214,999,7211,.49541717E-3,.16701E-3,0
TEVEL2-6,2025-052F,2026-07-01T05:36:56.824128,15.34892606,.00044619,97.3895,78.5803,79.5368,280.6378,0,U,63215,999,7226,.73468096E-3,.24838E-3,0
TEVEL2-1,2025-052H,2026-07-01T15:49:21.724608,15.34353658,.00049593,97.3861,78.6135,86.0738,274.1071,0,U,63217,999,7231,.66004704E-3,.21922E-3,0
TEVEL2-3,2025-052J,2026-07-01T07:51:19.512288,15.34403112,.00047847,97.3865,78.3051,88.1642,272.0149,0,U,63218,999,7226,.74270485E-3,.24724E-3,0
TEVEL2-2,2025-052K,2026-07-01T15:49:40.906272,15.34364033,.0004976,97.3863,78.6161,87.0260,273.1553,0,U,63219,999,7231,.65989552E-3,.21924E-3,0
TEVEL2-9,2025-052AD,2026-07-01T06:20:07.561824,15.32333335,.00082654,97.3927,77.5652,93.8568,266.3619,0,U,63237,999,7218,.73495027E-3,.22932E-3,0
TEVEL2-7,2025-052AE,2026-07-01T16:47:19.050720,15.32039741,.00084122,97.3928,77.9098,92.7780,267.4424,0,U,63238,999,7224,.62827643E-3,.19405E-3,0
TEVEL2-8,2025-052AF,2026-07-01T06:01:01.312032,15.32010872,.0008433,97.3927,77.4382,94.5817,265.6388,0,U,63239,999,7217,.72188856E-3,.22297E-3,0
FORESAIL-1 PRIME,2025-276DS,2026-07-01T16:32:05.774208,15.18830309,.00036894,97.4199,255.6950,74.0984,286.0656,0,U,66778,999,3260,.27224935E-3,.5603E-4,0
